CELESTIS-17 & SHERPA-FX1
1 47486U 21006CB  26068.64311433  .00007207  00000+0  24301-3 0  9993
2 47486  97.2397 112.1052 0006630 178.1385 181.9882 15.30994801284065
STARLINK-35657          
1 66399U 25257V   26068.71592492  .00019300  00000+0  66214-3 0  9999
2 66399  53.1573 217.1722 0000749 112.2619 247.8461 15.30196269 19726
